[{"OBJECT_NAME":"ONEWEB-0299","OBJECT_ID":"2021-075P","EPOCH":"2025-11-01T07:25:16.264128","MEAN_MOTION":13.17649614,"ECCENTRICITY":0.00015912,"INCLINATION":87.914,"RA_OF_ASC_NODE":51.1456,"ARG_OF_PERICENTER":97.7113,"MEAN_ANOMALY":262.4199,"EPHEMERIS_TYPE":0,"CLASSIFICATION_TYPE":"U","NORAD_CAT_ID":49088,"ELEMENT_SET_NO":999,"REV_AT_EPOCH":20359,"BSTAR":0.00011194377,"MEAN_MOTION_DOT":5.6e-7,"MEAN_MOTION_DDOT":0},{"OBJECT_NAME":"ONEWEB-0300","OBJECT_ID":"2021-075Q","EPOCH":"2025-11-01T12:51:52.187616","MEAN_MOTION":13.12445662,"ECCENTRICITY":0.0001583,"INCLINATION":87.8976,"RA_OF_ASC_NODE":35.8745,"ARG_OF_PERICENTER":111.6272,"MEAN_ANOMALY":248.5025,"EPHEMERIS_TYPE":0,"CLASSIFICATION_TYPE":"U","NORAD_CAT_ID":49089,"ELEMENT_SET_NO":999,"REV_AT_EPOCH":20534,"BSTAR":0.00024273786,"MEAN_MOTION_DOT":1.0e-6,"MEAN_MOTION_DDOT":0},{"OBJECT_NAME":"ONEWEB-0301","OBJECT_ID":"2021-075R","EPOCH":"2025-11-01T12:28:31.103616","MEAN_MOTION":13.12444912,"ECCENTRICITY":0.00015992,"INCLINATION":87.8971,"RA_OF_ASC_NODE":35.8809,"ARG_OF_PERICENTER":114.6154,"MEAN_ANOMALY":245.5141,"EPHEMERIS_TYPE":0,"CLASSIFICATION_TYPE":"U","NORAD_CAT_ID":49090,"ELEMENT_SET_NO":999,"REV_AT_EPOCH":20470,"BSTAR":-0.00093946735,"MEAN_MOTION_DOT":-3.25e-6,"MEAN_MOTION_DDOT":0},{"OBJECT_NAME":"ONEWEB-0302","OBJECT_ID":"2021-075S","EPOCH":"2025-11-01T12:09:48.975840","MEAN_MOTION":13.12441227,"ECCENTRICITY":0.00020063,"INCLINATION":87.8977,"RA_OF_ASC_NODE":35.8911,"ARG_OF_PERICENTER":93.8836,"MEAN_ANOMALY":266.2522,"EPHEMERIS_TYPE":0,"CLASSIFICATION_TYPE":"U","NORAD_CAT_ID":49091,"ELEMENT_SET_NO":999,"REV_AT_EPOCH":20468,"BSTAR":-0.00089752988,"MEAN_MOTION_DOT":-3.1e-6,"MEAN_MOTION_DDOT":0},{"OBJECT_NAME":"ONEWEB-0304","OBJECT_ID":"2021-075T","EPOCH":"2025-11-01T14:06:12.863232","MEAN_MOTION":13.17649925,"ECCENTRICITY":0.00017474,"INCLINATION":87.9129,"RA_OF_ASC_NODE":51.1208,"ARG_OF_PERICENTER":97.222,"MEAN_ANOMALY":262.9111,"EPHEMERIS_TYPE":0,"CLASSIFICATION_TYPE":"U","NORAD_CAT_ID":49092,"ELEMENT_SET_NO":999,"REV_AT_EPOCH":20360,"BSTAR":0.00020506476,"MEAN_MOTION_DOT":9.2e-7,"MEAN_MOTION_DDOT":0},{"OBJECT_NAME":"ONEWEB-0305","OBJECT_ID":"2021-075U","EPOCH":"2025-11-01T13:56:29.268384","MEAN_MOTION":13.17651131,"ECCENTRICITY":0.00015592,"INCLINATION":87.9123,"RA_OF_ASC_NODE":51.0986,"ARG_OF_PERICENTER":88.0407,"MEAN_ANOMALY":272.0903,"EPHEMERIS_TYPE":0,"CLASSIFICATION_TYPE":"U","NORAD_CAT_ID":49093,"ELEMENT_SET_NO":999,"REV_AT_EPOCH":20363,"BSTAR":0.00011873943,"MEAN_MOTION_DOT":5.9e-7,"MEAN_MOTION_DDOT":0},{"OBJECT_NAME":"ONEWEB-0308","OBJECT_ID":"2021-075V","EPOCH":"2025-11-01T12:00:28.628640","MEAN_MOTION":13.12440821,"ECCENTRICITY":0.00018126,"INCLINATION":87.8974,"RA_OF_ASC_NODE":35.8849,"ARG_OF_PERICENTER":102.2376,"MEAN_ANOMALY":257.8955,"EPHEMERIS_TYPE":0,"CLASSIFICATION_TYPE":"U","NORAD_CAT_ID":49094,"ELEMENT_SET_NO":999,"REV_AT_EPOCH":20469,"BSTAR":-0.00030537092,"MEAN_MOTION_DOT":-9.7e-7,"MEAN_MOTION_DDOT":0},{"OBJECT_NAME":"ONEWEB-0309","OBJECT_ID":"2021-075W","EPOCH":"2025-11-01T14:01:21.356544","MEAN_MOTION":13.17648811,"ECCENTRICITY":0.00021336,"INCLINATION":87.9128,"RA_OF_ASC_NODE":51.1144,"ARG_OF_PERICENTER":93.5385,"MEAN_ANOMALY":266.5991,"EPHEMERIS_TYPE":0,"CLASSIFICATION_TYPE":"U","NORAD_CAT_ID":49095,"ELEMENT_SET_NO":999,"REV_AT_EPOCH":20360,"BSTAR":-3.7070007e-5,"MEAN_MOTION_DOT":-2.0e-8,"MEAN_MOTION_DDOT":0},{"OBJECT_NAME":"ONEWEB-0310","OBJECT_ID":"2021-075X","EPOCH":"2025-11-01T12:21:30.516192","MEAN_MOTION":13.12443629,"ECCENTRICITY":0.00018767,"INCLINATION":87.8962,"RA_OF_ASC_NODE":35.922,"ARG_OF_PERICENTER":99.131,"MEAN_ANOMALY":261.0031,"EPHEMERIS_TYPE":0,"CLASSIFICATION_TYPE":"U","NORAD_CAT_ID":49096,"ELEMENT_SET_NO":999,"REV_AT_EPOCH":20532,"BSTAR":-0.0010720083,"MEAN_MOTION_DOT":-3.73e-6,"MEAN_MOTION_DDOT":0},{"OBJECT_NAME":"ONEWEB-0311","OBJECT_ID":"2021-075Y","EPOCH":"2025-11-01T14:11:03.285600","MEAN_MOTION":13.17651183,"ECCENTRICITY":0.00014916,"INCLINATION":87.9128,"RA_OF_ASC_NODE":51.1098,"ARG_OF_PERICENTER":94.2672,"MEAN_ANOMALY":265.863,"EPHEMERIS_TYPE":0,"CLASSIFICATION_TYPE":"U","NORAD_CAT_ID":49097,"ELEMENT_SET_NO":999,"REV_AT_EPOCH":20365,"BSTAR":-1.9425322e-5,"MEAN_MOTION_DOT":5.0e-8,"MEAN_MOTION_DDOT":0},{"OBJECT_NAME":"ONEWEB-0312","OBJECT_ID":"2021-075Z","EPOCH":"2025-11-01T07:15:32.925024","MEAN_MOTION":13.17648918,"ECCENTRICITY":0.00017164,"INCLINATION":87.9126,"RA_OF_ASC_NODE":51.1961,"ARG_OF_PERICENTER":89.9715,"MEAN_ANOMALY":270.1613,"EPHEMERIS_TYPE":0,"CLASSIFICATION_TYPE":"U","NORAD_CAT_ID":49098,"ELEMENT_SET_NO":999,"REV_AT_EPOCH":20359,"BSTAR":0.00021421347,"MEAN_MOTION_DOT":9.6e-7,"MEAN_MOTION_DDOT":0},{"OBJECT_NAME":"ONEWEB-0313","OBJECT_ID":"2021-075AA","EPOCH":"2025-11-01T12:50:41.298144","MEAN_MOTION":13.17650281,"ECCENTRICITY":0.00017001,"INCLINATION":87.9121,"RA_OF_ASC_NODE":51.1588,"ARG_OF_PERICENTER":97.7578,"MEAN_ANOMALY":262.3746,"EPHEMERIS_TYPE":0,"CLASSIFICATION_TYPE":"U","NORAD_CAT_ID":49099,"ELEMENT_SET_NO":999,"REV_AT_EPOCH":20361,"BSTAR":0.00013464457,"MEAN_MOTION_DOT":6.5e-7,"MEAN_MOTION_DDOT":0},{"OBJECT_NAME":"ONEWEB-0314","OBJECT_ID":"2021-075AB","EPOCH":"2025-11-01T13:51:38.065824","MEAN_MOTION":13.17649926,"ECCENTRICITY":0.00016991,"INCLINATION":87.9126,"RA_OF_ASC_NODE":51.0968,"ARG_OF_PERICENTER":86.9973,"MEAN_ANOMALY":273.1353,"EPHEMERIS_TYPE":0,"CLASSIFICATION_TYPE":"U","NORAD_CAT_ID":49100,"ELEMENT_SET_NO":999,"REV_AT_EPOCH":20359,"BSTAR":0.00011306353,"MEAN_MOTION_DOT":5.7e-7,"MEAN_MOTION_DDOT":0},{"OBJECT_NAME":"ONEWEB-0315","OBJECT_ID":"2021-075AC","EPOCH":"2025-11-01T11:44:08.424096","MEAN_MOTION":13.12441299,"ECCENTRICITY":0.00014064,"INCLINATION":87.8969,"RA_OF_ASC_NODE":35.8745,"ARG_OF_PERICENTER":97.7165,"MEAN_ANOMALY":262.4124,"EPHEMERIS_TYPE":0,"CLASSIFICATION_TYPE":"U","NORAD_CAT_ID":49101,"ELEMENT_SET_NO":999,"REV_AT_EPOCH":20530,"BSTAR":0.00082465742,"MEAN_MOTION_DOT":3.09e-6,"MEAN_MOTION_DDOT":0},{"OBJECT_NAME":"ONEWEB-0316","OBJECT_ID":"2021-075AD","EPOCH":"2025-11-01T10:53:02.386176","MEAN_MOTION":13.18687824,"ECCENTRICITY":0.00017421,"INCLINATION":87.9229,"RA_OF_ASC_NODE":20.6974,"ARG_OF_PERICENTER":99.2584,"MEAN_ANOMALY":260.8745,"EPHEMERIS_TYPE":0,"CLASSIFICATION_TYPE":"U","NORAD_CAT_ID":49102,"ELEMENT_SET_NO":999,"REV_AT_EPOCH":20719,"BSTAR":0.00011794867,"MEAN_MOTION_DOT":5.9e-7,"MEAN_MOTION_DDOT":0},{"OBJECT_NAME":"ONEWEB-0317","OBJECT_ID":"2021-075AE","EPOCH":"2025-11-01T11:34:47.581824","MEAN_MOTION":13.12445524,"ECCENTRICITY":0.00027292,"INCLINATION":87.8973,"RA_OF_ASC_NODE":35.892,"ARG_OF_PERICENTER":101.1313,"MEAN_ANOMALY":259.0122,"EPHEMERIS_TYPE":0,"CLASSIFICATION_TYPE":"U","NORAD_CAT_ID":49103,"ELEMENT_SET_NO":999,"REV_AT_EPOCH":20532,"BSTAR":-0.00016813375,"MEAN_MOTION_DOT":-4.8e-7,"MEAN_MOTION_DDOT":0},{"OBJECT_NAME":"ONEWEB-0318","OBJECT_ID":"2021-075AF","EPOCH":"2025-11-01T10:48:16.577568","MEAN_MOTION":13.18687204,"ECCENTRICITY":0.00016746,"INCLINATION":87.9229,"RA_OF_ASC_NODE":20.685,"ARG_OF_PERICENTER":97.9213,"MEAN_ANOMALY":262.2109,"EPHEMERIS_TYPE":0,"CLASSIFICATION_TYPE":"U","NORAD_CAT_ID":49104,"ELEMENT_SET_NO":999,"REV_AT_EPOCH":20715,"BSTAR":4.0808936e-5,"MEAN_MOTION_DOT":2.9e-7,"MEAN_MOTION_DDOT":0}]
