ONEWEB-0299             
1 49088U 21075P   25305.30921602  .00000056  00000+0  11194-3 0  9991
2 49088  87.9140  51.1456 0001591  97.7113 262.4199 13.17649614203590
ONEWEB-0300             
1 49089U 21075Q   25305.53602069  .00000100  00000+0  24274-3 0  9993
2 49089  87.8976  35.8745 0001583 111.6272 248.5025 13.12445662205340
ONEWEB-0301             
1 49090U 21075R   25305.51980444 -.00000325  00000+0 -93947-3 0  9993
2 49090  87.8971  35.8809 0001599 114.6154 245.5141 13.12444912204709
ONEWEB-0302             
1 49091U 21075S   25305.50681685 -.00000310  00000+0 -89753-3 0  9992
2 49091  87.8977  35.8911 0002006  93.8836 266.2522 13.12441227204685
ONEWEB-0304             
1 49092U 21075T   25305.58764888  .00000092  00000+0  20506-3 0  9994
2 49092  87.9129  51.1208 0001747  97.2220 262.9111 13.17649925203600
ONEWEB-0305             
1 49093U 21075U   25305.58089431  .00000059  00000+0  11874-3 0  9990
2 49093  87.9123  51.0986 0001559  88.0407 272.0903 13.17651131203639
ONEWEB-0308             
1 49094U 21075V   25305.50033135 -.00000097  00000+0 -30537-3 0  9994
2 49094  87.8974  35.8849 0001812 102.2376 257.8955 13.12440821204699
ONEWEB-0309             
1 49095U 21075W   25305.58427496 -.00000002  00000+0 -37070-4 0  9996
2 49095  87.9128  51.1144 0002133  93.5385 266.5991 13.17648811203601
ONEWEB-0310             
1 49096U 21075X   25305.51493653 -.00000373  00000+0 -10720-2 0  9990
2 49096  87.8962  35.9220 0001876  99.1310 261.0031 13.12443629205326
ONEWEB-0311             
1 49097U 21075Y   25305.59101025  .00000005  00000+0 -19425-4 0  9992
2 49097  87.9128  51.1098 0001491  94.2672 265.8630 13.17651183203657
ONEWEB-0312             
1 49098U 21075Z   25305.30246441  .00000096  00000+0  21421-3 0  9991
2 49098  87.9126  51.1961 0001716  89.9715 270.1613 13.17648918203599
ONEWEB-0313             
1 49099U 21075AA  25305.53520021  .00000065  00000+0  13464-3 0  9990
2 49099  87.9121  51.1588 0001700  97.7578 262.3746 13.17650281203616
ONEWEB-0314             
1 49100U 21075AB  25305.57752391  .00000057  00000+0  11306-3 0  9998
2 49100  87.9126  51.0968 0001699  86.9973 273.1353 13.17649926203596
ONEWEB-0315             
1 49101U 21075AC  25305.48898639  .00000309  00000+0  82466-3 0  9990
2 49101  87.8969  35.8745 0001406  97.7165 262.4124 13.12441299205309
ONEWEB-0316             
1 49102U 21075AD  25305.45349984  .00000059  00000+0  11795-3 0  9991
2 49102  87.9229  20.6974 0001742  99.2584 260.8745 13.18687824207193
ONEWEB-0317             
1 49103U 21075AE  25305.48249516 -.00000048  00000+0 -16813-3 0  9991
2 49103  87.8973  35.8920 0002729 101.1313 259.0122 13.12445524205322
ONEWEB-0318             
1 49104U 21075AF  25305.45019187  .00000029  00000+0  40809-4 0  9998
2 49104  87.9229  20.6850 0001674  97.9213 262.2109 13.18687204207154
